CUTE-1.7+APD II (CO-65) 
1 32785U 08021C   26088.21520637  .00009202  00000+0  59137-3 0  9996
2 32785  97.8228  68.0440 0007607 309.0033  51.0517 15.08638044973134
SEEDS II (CO-66)        
1 32791U 08021J   26087.50130163  .00022720  00000+0  78688-3 0  9997
2 32791  97.7522  81.7278 0001837 175.4551 184.6705 15.29863940974947
YUBILEINY (RS30)        
1 32953U 08025A   26088.18364508  .00000081  00000+0  50774-3 0  9990
2 32953  82.5033  45.1937 0020215 123.4599 236.8417 12.43176873809759
KKS-1 (KISEKI)          
1 33499U 09002H   26088.16844703  .00002045  00000+0  25898-3 0  9991
2 33499  98.1185   9.3608 0007651 179.7014 180.4205 14.82901042924338
SWISSCUBE               
1 35932U 09051B   26088.18436285  .00001512  00000+0  30917-3 0  9999
2 35932  98.4083 354.6718 0008021  99.0217 261.1892 14.62312493877465
BEESAT-1                
1 35933U 09051C   26088.15283814  .00001256  00000+0  26274-3 0  9991
2 35933  98.4013 354.4405 0006362 110.1396 250.0489 14.61577749877497
ITUPSAT1                
1 35935U 09051E   26088.21098633  .00001150  00000+0  24801-3 0  9990
2 35935  98.4100 353.7747 0008450 121.1104 239.0925 14.60309071877061
XIWANG-1 (HOPE-1)       
1 36122U 09072B   26088.14079631  .00000416  00000+0  12044-2 0  9990
2 36122 100.3944  43.2807 0008112  58.8219 301.3688 13.16438944782476
O/OREOS (USA 219)       
1 37224U 10062C   26087.89034382  .00003296  00000+0  31897-3 0  9997
2 37224  71.9691 262.1742 0016156 224.2005 135.7876 14.93381659104653
JUGNU                   
1 37839U 11058B   26088.11942577  .00000477  00000+0  10918-3 0  9994
2 37839  19.9611  74.8547 0018340 272.1328 159.2115 14.13748926747686
SRMSAT                  
1 37841U 11058D   26087.62718838  .00000421  00000+0  84528-4 0  9991
2 37841  19.9709 187.0799 0011914  37.8808 350.3563 14.11554455746424
STRAND-1                
1 39090U 13009E   26087.78078808  .00000369  00000+0  13860-3 0  9991
2 39090  98.3903 269.9991 0009792 109.4666 250.7580 14.37110554685512
ZACUBE-1 (TSHEPISOSAT)  
1 39417U 13066B   26088.13690990  .00005177  00000+0  40731-3 0  9998
2 39417  97.8137  50.0550 0044615 156.4937 203.8338 15.00497521668721
GOMX-1                  
1 39430U 13066Q   26088.16739380  .00001727  00000+0  26646-3 0  9999
2 39430  97.6557 293.6576 0128761 335.1371  24.3666 14.69169369658163
CUBEBUG-2 (LO-74)       
1 39440U 13066AA  26088.13260495  .00006229  00000+0  58393-3 0  9999
2 39440  97.8831  36.8418 0056644 293.6765  65.8516 14.93170775665047
FUNCUBE-1 (AO-73)       
1 39444U 13066AE  26088.14832391  .00009994  00000+0  63794-3 0  9997
2 39444  97.8202  58.0254 0038894 114.7543 245.7740 15.08248025667592
UWE-3                   
1 39446U 13066AG  26087.85559123  .00004336  00000+0  37942-3 0  9996
2 39446  97.8615  43.4680 0048413 226.6001 133.1185 14.96371134665565
